{
  "type": "FeatureCollection",
  "features": [
    {
      "type": "Feature",
      "properties": {
        "norad_id": 66872,
        "name": "STARLINK-36082",
        "group": "last-30-days",
        "lat": 34.06167915797389,
        "lon": -117.41772962527723,
        "alt_km": 311.0471986995408,
        "timestamp": "2025-12-14T20:40:30.517257+00:00",
        "meta_object_name": "STARLINK-36082",
        "meta_object_id": "2025-281AA",
        "meta_epoch": "2025-12-14T06:00:02.999808",
        "meta_mean_motion": 15.87354213,
        "meta_eccentricity": 0.0001391,
        "meta_inclination": 43.0004,
        "meta_ra_of_asc_node": 112.8676,
        "meta_arg_of_pericenter": 267.5487,
        "meta_mean_anomaly": 321.0901,
        "meta_ephemeris_type": 0,
        "meta_classification_type": "U",
        "meta_norad_cat_id": 66872,
        "meta_element_set_no": 999,
        "meta_rev_at_epoch": 154,
        "meta_bstar": -0.0062955627,
        "meta_mean_motion_dot": -0.01514894,
        "meta_mean_motion_ddot": 0,
        "tle_line1": "1 66872U 25281AA  25348.25003472 -.01514894  00000+0 -62956-2 0  9995",
        "tle_line2": "2 66872  43.0004 112.8676 0001391 267.5487 321.0901 15.87354213  1541"
      },
      "geometry": {
        "type": "Point",
        "coordinates": [
          -117.41772962527723,
          34.06167915797389
        ]
      }
    },
    {
      "type": "Feature",
      "properties": {
        "norad_id": 66873,
        "name": "STARLINK-36128",
        "group": "last-30-days",
        "lat": 29.661252611500498,
        "lon": -108.60027625687412,
        "alt_km": 311.97279278311817,
        "timestamp": "2025-12-14T20:40:30.517276+00:00",
        "meta_object_name": "STARLINK-36128",
        "meta_object_id": "2025-281AB",
        "meta_epoch": "2025-12-14T06:00:02.999808",
        "meta_mean_motion": 15.87275166,
        "meta_eccentricity": 0.00014903,
        "meta_inclination": 43,
        "meta_ra_of_asc_node": 112.8451,
        "meta_arg_of_pericenter": 265.3684,
        "meta_mean_anomaly": 332.1722,
        "meta_ephemeris_type": 0,
        "meta_classification_type": "U",
        "meta_norad_cat_id": 66873,
        "meta_element_set_no": 999,
        "meta_rev_at_epoch": 167,
        "meta_bstar": -0.0064256949,
        "meta_mean_motion_dot": -0.01537177,
        "meta_mean_motion_ddot": 0,
        "tle_line1": "1 66873U 25281AB  25348.25003472 -.01537177  00000+0 -64257-2 0  9991",
        "tle_line2": "2 66873  43.0000 112.8451 0001490 265.3684 332.1722 15.87275166  1671"
      },
      "geometry": {
        "type": "Point",
        "coordinates": [
          -108.60027625687412,
          29.661252611500498
        ]
      }
    },
    {
      "type": "Feature",
      "properties": {
        "norad_id": 66874,
        "name": "STARLINK-36129",
        "group": "last-30-days",
        "lat": 32.47914468852465,
        "lon": -114.00120681027428,
        "alt_km": 311.3720067051354,
        "timestamp": "2025-12-14T20:40:30.517289+00:00",
        "meta_object_name": "STARLINK-36129",
        "meta_object_id": "2025-281AC",
        "meta_epoch": "2025-12-14T06:00:02.999808",
        "meta_mean_motion": 15.87314509,
        "meta_eccentricity": 0.00013166,
        "meta_inclination": 43.0002,
        "meta_ra_of_asc_node": 112.8594,
        "meta_arg_of_pericenter": 266.2018,
        "meta_mean_anomaly": 325.8153,
        "meta_ephemeris_type": 0,
        "meta_classification_type": "U",
        "meta_norad_cat_id": 66874,
        "meta_element_set_no": 999,
        "meta_rev_at_epoch": 167,
        "meta_bstar": -0.0063734975,
        "meta_mean_motion_dot": -0.01528682,
        "meta_mean_motion_ddot": 0,
        "tle_line1": "1 66874U 25281AC  25348.25003472 -.01528682  00000+0 -63735-2 0  9993",
        "tle_line2": "2 66874  43.0002 112.8594 0001316 266.2018 325.8153 15.87314509  1672"
      },
      "geometry": {
        "type": "Point",
        "coordinates": [
          -114.00120681027428,
          32.47914468852465
        ]
      }
    },
    {
      "type": "Feature",
      "properties": {
        "norad_id": 66875,
        "name": "STARLINK-36053",
        "group": "last-30-days",
        "lat": 28.062841783994227,
        "lon": -105.83315347615056,
        "alt_km": 312.2683844259036,
        "timestamp": "2025-12-14T20:40:30.517300+00:00",
        "meta_object_name": "STARLINK-36053",
        "meta_object_id": "2025-281AD",
        "meta_epoch": "2025-12-14T06:00:02.999808",
        "meta_mean_motion": 15.8724977,
        "meta_eccentricity": 0.00014136,
        "meta_inclination": 43.0001,
        "meta_ra_of_asc_node": 112.8368,
        "meta_arg_of_pericenter": 265.978,
        "meta_mean_anomaly": 334.5381,
        "meta_ephemeris_type": 0,
        "meta_classification_type": "U",
        "meta_norad_cat_id": 66875,
        "meta_element_set_no": 999,
        "meta_rev_at_epoch": 167,
        "meta_bstar": -0.0064740678,
        "meta_mean_motion_dot": -0.01545566,
        "meta_mean_motion_ddot": 0,
        "tle_line1": "1 66875U 25281AD  25348.25003472 -.01545566  00000+0 -64741-2 0  9992",
        "tle_line2": "2 66875  43.0001 112.8368 0001413 265.9780 334.5381 15.87249770  1678"
      },
      "geometry": {
        "type": "Point",
        "coordinates": [
          -105.83315347615056,
          28.062841783994227
        ]
      }
    },
    {
      "type": "Feature",
      "properties": {
        "norad_id": 66876,
        "name": "STARLINK-35702",
        "group": "last-30-days",
        "lat": 30.816838140715088,
        "lon": -110.72445996343536,
        "alt_km": 311.902947934489,
        "timestamp": "2025-12-14T20:40:30.517311+00:00",
        "meta_object_name": "STARLINK-35702",
        "meta_object_id": "2025-281AE",
        "meta_epoch": "2025-12-14T06:00:02.999808",
        "meta_mean_motion": 15.87272776,
        "meta_eccentricity": 0.00015428,
        "meta_inclination": 43.0004,
        "meta_ra_of_asc_node": 112.8506,
        "meta_arg_of_pericenter": 267.4244,
        "meta_mean_anomaly": 327.9545,
        "meta_ephemeris_type": 0,
        "meta_classification_type": "U",
        "meta_norad_cat_id": 66876,
        "meta_element_set_no": 999,
        "meta_rev_at_epoch": 167,
        "meta_bstar": -0.0064386623,
        "meta_mean_motion_dot": -0.01539789,
        "meta_mean_motion_ddot": 0,
        "tle_line1": "1 66876U 25281AE  25348.25003472 -.01539789  00000+0 -64387-2 0  9999",
        "tle_line2": "2 66876  43.0004 112.8506 0001542 267.4244 327.9545 15.87272776  1671"
      },
      "geometry": {
        "type": "Point",
        "coordinates": [
          -110.72445996343536,
          30.816838140715088
        ]
      }
    },
    {
      "type": "Feature",
      "properties": {
        "norad_id": 66877,
        "name": "ZQ-3 R/B",
        "group": "last-30-days",
        "lat": -21.63652410690211,
        "lon": 34.560764901306406,
        "alt_km": 833.350781066224,
        "timestamp": "2025-12-14T20:40:30.517322+00:00",
        "meta_object_name": "ZQ-3 R/B",
        "meta_object_id": "2025-282A",
        "meta_epoch": "2025-12-14T07:41:19.484160",
        "meta_mean_motion": 14.62852731,
        "meta_eccentricity": 0.07651193,
        "meta_inclination": 56.952,
        "meta_ra_of_asc_node": 51.6111,
        "meta_arg_of_pericenter": 222.6896,
        "meta_mean_anomaly": 131.2199,
        "meta_ephemeris_type": 0,
        "meta_classification_type": "U",
        "meta_norad_cat_id": 66877,
        "meta_element_set_no": 999,
        "meta_rev_at_epoch": 162,
        "meta_bstar": 0.00023301572,
        "meta_mean_motion_dot": 0.01191657,
        "meta_mean_motion_ddot": 7.534814e-06,
        "tle_line1": "1 66877U 25282A   25348.32036440  .01191657  75348-5  23302-3 0  9992",
        "tle_line2": "2 66877  56.9520  51.6111 0765119 222.6896 131.2199 14.62852731  1626"
      },
      "geometry": {
        "type": "Point",
        "coordinates": [
          34.560764901306406,
          -21.63652410690211
        ]
      }
    },
    {
      "type": "Feature",
      "properties": {
        "norad_id": 66878,
        "name": "STARLINK-35866",
        "group": "last-30-days",
        "lat": 45.5509869461156,
        "lon": -166.65819400912585,
        "alt_km": 297.8730651871556,
        "timestamp": "2025-12-14T20:40:30.517332+00:00",
        "meta_object_name": "STARLINK-35866",
        "meta_object_id": "2025-283A",
        "meta_epoch": "2025-12-14T06:00:02.999808",
        "meta_mean_motion": 15.9067315,
        "meta_eccentricity": 8.761e-05,
        "meta_inclination": 53.1558,
        "meta_ra_of_asc_node": 66.3035,
        "meta_arg_of_pericenter": 89.0404,
        "meta_mean_anomaly": 126.0221,
        "meta_ephemeris_type": 0,
        "meta_classification_type": "U",
        "meta_norad_cat_id": 66878,
        "meta_element_set_no": 999,
        "meta_rev_at_epoch": 267,
        "meta_bstar": -0.0039239528,
        "meta_mean_motion_dot": -0.01103372,
        "meta_mean_motion_ddot": 0,
        "tle_line1": "1 66878U 25283A   25348.25003472 -.01103372  00000+0 -39240-2 0  9998",
        "tle_line2": "2 66878  53.1558  66.3035 0000876  89.0404 126.0221 15.90673150  2679"
      },
      "geometry": {
        "type": "Point",
        "coordinates": [
          -166.65819400912585,
          45.5509869461156
        ]
      }
    }
  ]
}